{
  "type": "FeatureCollection",
  "features": [
    {
      "type": "Feature",
      "properties": {
        "norad_id": 66657,
        "name": "SPIRONE",
        "group": "last-30-days",
        "lat": -39.446068838463034,
        "lon": 83.74440093001053,
        "alt_km": 594.4527106960477,
        "timestamp": "2025-12-08T21:31:03.448705+00:00",
        "meta_object_name": "SPIRONE",
        "meta_object_id": "2025-274H",
        "meta_epoch": "2025-12-08T07:39:42.153696",
        "meta_mean_motion": 14.92410974,
        "meta_eccentricity": 0.00110012,
        "meta_inclination": 97.7387,
        "meta_ra_of_asc_node": 269.601,
        "meta_arg_of_pericenter": 292.9118,
        "meta_mean_anomaly": 67.0939,
        "meta_ephemeris_type": 0,
        "meta_classification_type": "U",
        "meta_norad_cat_id": 66657,
        "meta_element_set_no": 999,
        "meta_rev_at_epoch": 174,
        "meta_bstar": 0.00040987248,
        "meta_mean_motion_dot": 4.147e-05,
        "meta_mean_motion_ddot": 0,
        "tle_line1": "1 66657U 25274H   25342.31923789  .00004147  00000+0  40987-3 0  9994",
        "tle_line2": "2 66657  97.7387 269.6010 0011001 292.9118  67.0939 14.92410974  1749"
      },
      "geometry": {
        "type": "Point",
        "coordinates": [
          83.74440093001053,
          -39.446068838463034
        ]
      }
    },
    {
      "type": "Feature",
      "properties": {
        "norad_id": 66658,
        "name": "2025-274J",
        "group": "last-30-days",
        "lat": -46.97987222772613,
        "lon": 81.79235154127089,
        "alt_km": 593.480027741517,
        "timestamp": "2025-12-08T21:31:03.448717+00:00",
        "meta_object_name": "2025-274J",
        "meta_object_id": "2025-274J",
        "meta_epoch": "2025-12-08T06:01:12.095616",
        "meta_mean_motion": 14.92583165,
        "meta_eccentricity": 0.00115832,
        "meta_inclination": 97.7387,
        "meta_ra_of_asc_node": 269.5369,
        "meta_arg_of_pericenter": 296.1816,
        "meta_mean_anomaly": 63.8212,
        "meta_ephemeris_type": 0,
        "meta_classification_type": "U",
        "meta_norad_cat_id": 66658,
        "meta_element_set_no": 999,
        "meta_rev_at_epoch": 173,
        "meta_bstar": 0.0003872742,
        "meta_mean_motion_dot": 3.932e-05,
        "meta_mean_motion_ddot": 0,
        "tle_line1": "1 66658U 25274J   25342.25083444  .00003932  00000+0  38727-3 0  9993",
        "tle_line2": "2 66658  97.7387 269.5369 0011583 296.1816  63.8212 14.92583165  1732"
      },
      "geometry": {
        "type": "Point",
        "coordinates": [
          81.79235154127089,
          -46.97987222772613
        ]
      }
    },
    {
      "type": "Feature",
      "properties": {
        "norad_id": 66659,
        "name": "JACK K",
        "group": "last-30-days",
        "lat": -54.93814722270501,
        "lon": 79.00285110874614,
        "alt_km": 591.9765023457458,
        "timestamp": "2025-12-08T21:31:03.448729+00:00",
        "meta_object_name": "JACK K",
        "meta_object_id": "2025-274K",
        "meta_epoch": "2025-12-08T14:01:45.022368",
        "meta_mean_motion": 14.92772871,
        "meta_eccentricity": 0.00123018,
        "meta_inclination": 97.7389,
        "meta_ra_of_asc_node": 269.8688,
        "meta_arg_of_pericenter": 296.1145,
        "meta_mean_anomaly": 63.8808,
        "meta_ephemeris_type": 0,
        "meta_classification_type": "U",
        "meta_norad_cat_id": 66659,
        "meta_element_set_no": 999,
        "meta_rev_at_epoch": 178,
        "meta_bstar": 0.00043957351,
        "meta_mean_motion_dot": 4.494e-05,
        "meta_mean_motion_ddot": 0,
        "tle_line1": "1 66659U 25274K   25342.58454887  .00004494  00000+0  43957-3 0  9998",
        "tle_line2": "2 66659  97.7389 269.8688 0012301 296.1145  63.8808 14.92772871  1786"
      },
      "geometry": {
        "type": "Point",
        "coordinates": [
          79.00285110874614,
          -54.93814722270501
        ]
      }
    },
    {
      "type": "Feature",
      "properties": {
        "norad_id": 66660,
        "name": "K-HERO",
        "group": "last-30-days",
        "lat": -61.27693333734046,
        "lon": 75.8098629798817,
        "alt_km": 590.6400432888431,
        "timestamp": "2025-12-08T21:31:03.448739+00:00",
        "meta_object_name": "K-HERO",
        "meta_object_id": "2025-274L",
        "meta_epoch": "2025-12-08T14:00:02.007648",
        "meta_mean_motion": 14.92923819,
        "meta_eccentricity": 0.00129102,
        "meta_inclination": 97.7393,
        "meta_ra_of_asc_node": 269.8708,
        "meta_arg_of_pericenter": 296.7617,
        "meta_mean_anomaly": 63.2281,
        "meta_ephemeris_type": 0,
        "meta_classification_type": "U",
        "meta_norad_cat_id": 66660,
        "meta_element_set_no": 999,
        "meta_rev_at_epoch": 178,
        "meta_bstar": 0.00048009641,
        "meta_mean_motion_dot": 4.933e-05,
        "meta_mean_motion_ddot": 0,
        "tle_line1": "1 66660U 25274L   25342.58335657  .00004933  00000+0  48010-3 0  9996",
        "tle_line2": "2 66660  97.7393 269.8708 0012910 296.7617  63.2281 14.92923819  1781"
      },
      "geometry": {
        "type": "Point",
        "coordinates": [
          75.8098629798817,
          -61.27693333734046
        ]
      }
    },
    {
      "type": "Feature",
      "properties": {
        "norad_id": 66661,
        "name": "SNUGLITE-III",
        "group": "last-30-days",
        "lat": -67.59071190817357,
        "lon": 70.92496491558495,
        "alt_km": 589.3054855968985,
        "timestamp": "2025-12-08T21:31:03.448749+00:00",
        "meta_object_name": "SNUGLITE-III",
        "meta_object_id": "2025-274M",
        "meta_epoch": "2025-12-08T09:08:46.367808",
        "meta_mean_motion": 14.93065517,
        "meta_eccentricity": 0.00135592,
        "meta_inclination": 97.7392,
        "meta_ra_of_asc_node": 269.6743,
        "meta_arg_of_pericenter": 298.5343,
        "meta_mean_anomaly": 61.4511,
        "meta_ephemeris_type": 0,
        "meta_classification_type": "U",
        "meta_norad_cat_id": 66661,
        "meta_element_set_no": 999,
        "meta_rev_at_epoch": 175,
        "meta_bstar": 0.00032488595,
        "meta_mean_motion_dot": 3.331e-05,
        "meta_mean_motion_ddot": 0,
        "tle_line1": "1 66661U 25274M   25342.38109222  .00003331  00000+0  32489-3 0  9996",
        "tle_line2": "2 66661  97.7392 269.6743 0013559 298.5343  61.4511 14.93065517  1750"
      },
      "geometry": {
        "type": "Point",
        "coordinates": [
          70.92496491558495,
          -67.59071190817357
        ]
      }
    },
    {
      "type": "Feature",
      "properties": {
        "norad_id": 66662,
        "name": "2025-274N",
        "group": "last-30-days",
        "lat": -70.05818988583268,
        "lon": 68.1694869455852,
        "alt_km": 588.6430382832395,
        "timestamp": "2025-12-08T21:31:03.448759+00:00",
        "meta_object_name": "2025-274N",
        "meta_object_id": "2025-274N",
        "meta_epoch": "2025-12-08T09:08:04.855200",
        "meta_mean_motion": 14.93112225,
        "meta_eccentricity": 0.00139039,
        "meta_inclination": 97.739,
        "meta_ra_of_asc_node": 269.6749,
        "meta_arg_of_pericenter": 298.0607,
        "meta_mean_anomaly": 61.9207,
        "meta_ephemeris_type": 0,
        "meta_classification_type": "U",
        "meta_norad_cat_id": 66662,
        "meta_element_set_no": 999,
        "meta_rev_at_epoch": 175,
        "meta_bstar": 0.00025414275,
        "meta_mean_motion_dot": 2.597e-05,
        "meta_mean_motion_ddot": 0,
        "tle_line1": "1 66662U 25274N   25342.38061175  .00002597  00000+0  25414-3 0  9994",
        "tle_line2": "2 66662  97.7390 269.6749 0013903 298.0607  61.9207 14.93112225  1752"
      },
      "geometry": {
        "type": "Point",
        "coordinates": [
          68.1694869455852,
          -70.05818988583268
        ]
      }
    },
    {
      "type": "Feature",
      "properties": {
        "norad_id": 66663,
        "name": "KSLV-II R/B",
        "group": "last-30-days",
        "lat": 75.46410590451049,
        "lon": -121.36674577909864,
        "alt_km": 577.0361715544086,
        "timestamp": "2025-12-08T21:31:03.448769+00:00",
        "meta_object_name": "KSLV-II R/B",
        "meta_object_id": "2025-274P",
        "meta_epoch": "2025-12-06T19:27:04.446432",
        "meta_mean_motion": 14.97226496,
        "meta_eccentricity": 0.00484111,
        "meta_inclination": 97.7412,
        "meta_ra_of_asc_node": 268.2109,
        "meta_arg_of_pericenter": 339.2416,
        "meta_mean_anomaly": 20.6839,
        "meta_ephemeris_type": 0,
        "meta_classification_type": "U",
        "meta_norad_cat_id": 66663,
        "meta_element_set_no": 999,
        "meta_rev_at_epoch": 152,
        "meta_bstar": 0.00053388811,
        "meta_mean_motion_dot": 6.269e-05,
        "meta_mean_motion_ddot": 0,
        "tle_line1": "1 66663U 25274P   25340.81046813  .00006269  00000+0  53389-3 0  9995",
        "tle_line2": "2 66663  97.7412 268.2109 0048411 339.2416  20.6839 14.97226496  1529"
      },
      "geometry": {
        "type": "Point",
        "coordinates": [
          -121.36674577909864,
          75.46410590451049
        ]
      }
    }
  ]
}